<?xml version="1.0" encoding="UTF-8"?>
<ndm xmlns:xsi="http://www.w3.org/2001/XMLSchema-instance" xsi:noNamespaceSchemaLocation="https://sanaregistry.org/r/ndmxml_unqualified/ndmxml-2.0.0-master-2.0.xsd">
<omm id="CCSDS_OMM_VERS" version="2.0">
<header><CREATION_DATE/><ORIGINATOR/></header><body><segment><metadata><OBJECT_NAME>IRIDIUM 112</OBJECT_NAME><OBJECT_ID>2017-003J</OBJECT_ID><CENTER_NAME>EARTH</CENTER_NAME><REF_FRAME>TEME</REF_FRAME><TIME_SYSTEM>UTC</TIME_SYSTEM><MEAN_ELEMENT_THEORY>SGP4</MEAN_ELEMENT_THEORY></metadata><data><meanElements><EPOCH>2023-10-08T14:00:14.144256</EPOCH><MEAN_MOTION>14.34218793</MEAN_MOTION><ECCENTRICITY>.0002353</ECCENTRICITY><INCLINATION>86.3966</INCLINATION><RA_OF_ASC_NODE>138.9974</RA_OF_ASC_NODE><ARG_OF_PERICENTER>88.0026</ARG_OF_PERICENTER><MEAN_ANOMALY>272.1439</MEAN_ANOMALY></meanElements><tleParameters><EPHEMERIS_TYPE>0</EPHEMERIS_TYPE><CLASSIFICATION_TYPE>U</CLASSIFICATION_TYPE><NORAD_CAT_ID>41925</NORAD_CAT_ID><ELEMENT_SET_NO>999</ELEMENT_SET_NO><REV_AT_EPOCH>35243</REV_AT_EPOCH><BSTAR>.12023E-3</BSTAR><MEAN_MOTION_DOT>.356E-5</MEAN_MOTION_DOT><MEAN_MOTION_DDOT>0</MEAN_MOTION_DDOT></tleParameters></data></segment></body></omm>
<omm id="CCSDS_OMM_VERS" version="2.0">
<header><CREATION_DATE/><ORIGINATOR/></header><body><segment><metadata><OBJECT_NAME>IRIDIUM 111</OBJECT_NAME><OBJECT_ID>2017-003K</OBJECT_ID><CENTER_NAME>EARTH</CENTER_NAME><REF_FRAME>TEME</REF_FRAME><TIME_SYSTEM>UTC</TIME_SYSTEM><MEAN_ELEMENT_THEORY>SGP4</MEAN_ELEMENT_THEORY></metadata><data><meanElements><EPOCH>2023-10-08T13:41:58.249248</EPOCH><MEAN_MOTION>14.34216273</MEAN_MOTION><ECCENTRICITY>.0002034</ECCENTRICITY><INCLINATION>86.3970</INCLINATION><RA_OF_ASC_NODE>139.0517</RA_OF_ASC_NODE><ARG_OF_PERICENTER>77.6527</ARG_OF_PERICENTER><MEAN_ANOMALY>282.4896</MEAN_ANOMALY></meanElements><tleParameters><EPHEMERIS_TYPE>0</EPHEMERIS_TYPE><CLASSIFICATION_TYPE>U</CLASSIFICATION_TYPE><NORAD_CAT_ID>41926</NORAD_CAT_ID><ELEMENT_SET_NO>999</ELEMENT_SET_NO><REV_AT_EPOCH>35241</REV_AT_EPOCH><BSTAR>.85372E-5</BSTAR><MEAN_MOTION_DOT>.44E-6</MEAN_MOTION_DOT><MEAN_MOTION_DDOT>0</MEAN_MOTION_DDOT></tleParameters></data></segment></body></omm>
<omm id="CCSDS_OMM_VERS" version="2.0">
<header><CREATION_DATE/><ORIGINATOR/></header><body><segment><metadata><OBJECT_NAME>IRIDIUM 113</OBJECT_NAME><OBJECT_ID>2017-039A</OBJECT_ID><CENTER_NAME>EARTH</CENTER_NAME><REF_FRAME>TEME</REF_FRAME><TIME_SYSTEM>UTC</TIME_SYSTEM><MEAN_ELEMENT_THEORY>SGP4</MEAN_ELEMENT_THEORY></metadata><data><meanElements><EPOCH>2023-10-08T13:13:07.125024</EPOCH><MEAN_MOTION>14.34217911</MEAN_MOTION><ECCENTRICITY>.0002248</ECCENTRICITY><INCLINATION>86.4036</INCLINATION><RA_OF_ASC_NODE>12.7884</RA_OF_ASC_NODE><ARG_OF_PERICENTER>90.6244</ARG_OF_PERICENTER><MEAN_ANOMALY>269.5209</MEAN_ANOMALY></meanElements><tleParameters><EPHEMERIS_TYPE>0</EPHEMERIS_TYPE><CLASSIFICATION_TYPE>U</CLASSIFICATION_TYPE><NORAD_CAT_ID>42803</NORAD_CAT_ID><ELEMENT_SET_NO>999</ELEMENT_SET_NO><REV_AT_EPOCH>33034</REV_AT_EPOCH><BSTAR>.35671E-3</BSTAR><MEAN_MOTION_DOT>.1019E-4</MEAN_MOTION_DOT><MEAN_MOTION_DDOT>0</MEAN_MOTION_DDOT></tleParameters></data></segment></body></omm>
<omm id="CCSDS_OMM_VERS" version="2.0">
<header><CREATION_DATE/><ORIGINATOR/></header><body><segment><metadata><OBJECT_NAME>IRIDIUM 123</OBJECT_NAME><OBJECT_ID>2017-039B</OBJECT_ID><CENTER_NAME>EARTH</CENTER_NAME><REF_FRAME>TEME</REF_FRAME><TIME_SYSTEM>UTC</TIME_SYSTEM><MEAN_ELEMENT_THEORY>SGP4</MEAN_ELEMENT_THEORY></metadata><data><meanElements><EPOCH>2023-10-08T14:12:50.520960</EPOCH><MEAN_MOTION>14.34221455</MEAN_MOTION><ECCENTRICITY>.0002341</ECCENTRICITY><INCLINATION>86.3990</INCLINATION><RA_OF_ASC_NODE>44.2601</RA_OF_ASC_NODE><ARG_OF_PERICENTER>88.9794</ARG_OF_PERICENTER><MEAN_ANOMALY>271.1670</MEAN_ANOMALY></meanElements><tleParameters><EPHEMERIS_TYPE>0</EPHEMERIS_TYPE><CLASSIFICATION_TYPE>U</CLASSIFICATION_TYPE><NORAD_CAT_ID>42804</NORAD_CAT_ID><ELEMENT_SET_NO>999</ELEMENT_SET_NO><REV_AT_EPOCH>32911</REV_AT_EPOCH><BSTAR>.26552E-3</BSTAR><MEAN_MOTION_DOT>.763E-5</MEAN_MOTION_DOT><MEAN_MOTION_DDOT>0</MEAN_MOTION_DDOT></tleParameters></data></segment></body></omm>
<omm id="CCSDS_OMM_VERS" version="2.0">
<header><CREATION_DATE/><ORIGINATOR/></header><body><segment><metadata><OBJECT_NAME>IRIDIUM 120</OBJECT_NAME><OBJECT_ID>2017-039C</OBJECT_ID><CENTER_NAME>EARTH</CENTER_NAME><REF_FRAME>TEME</REF_FRAME><TIME_SYSTEM>UTC</TIME_SYSTEM><MEAN_ELEMENT_THEORY>SGP4</MEAN_ELEMENT_THEORY></metadata><data><meanElements><EPOCH>2023-10-08T13:03:59.040576</EPOCH><MEAN_MOTION>14.34218558</MEAN_MOTION><ECCENTRICITY>.0002093</ECCENTRICITY><INCLINATION>86.4024</INCLINATION><RA_OF_ASC_NODE>12.7010</RA_OF_ASC_NODE><ARG_OF_PERICENTER>92.0052</ARG_OF_PERICENTER><MEAN_ANOMALY>268.1384</MEAN_ANOMALY></meanElements><tleParameters><EPHEMERIS_TYPE>0</EPHEMERIS_TYPE><CLASSIFICATION_TYPE>U</CLASSIFICATION_TYPE><NORAD_CAT_ID>42805</NORAD_CAT_ID><ELEMENT_SET_NO>999</ELEMENT_SET_NO><REV_AT_EPOCH>33033</REV_AT_EPOCH><BSTAR>.10685E-3</BSTAR><MEAN_MOTION_DOT>.319E-5</MEAN_MOTION_DOT><MEAN_MOTION_DDOT>0</MEAN_MOTION_DDOT></tleParameters></data></segment></body></omm>
<omm id="CCSDS_OMM_VERS" version="2.0">
<header><CREATION_DATE/><ORIGINATOR/></header><body><segment><metadata><OBJECT_NAME>IRIDIUM 115</OBJECT_NAME><OBJECT_ID>2017-039D</OBJECT_ID><CENTER_NAME>EARTH</CENTER_NAME><REF_FRAME>TEME</REF_FRAME><TIME_SYSTEM>UTC</TIME_SYSTEM><MEAN_ELEMENT_THEORY>SGP4</MEAN_ELEMENT_THEORY></metadata><data><meanElements><EPOCH>2023-10-08T11:52:25.364064</EPOCH><MEAN_MOTION>14.43339543</MEAN_MOTION><ECCENTRICITY>.0002165</ECCENTRICITY><INCLINATION>86.4560</INCLINATION><RA_OF_ASC_NODE>12.7103</RA_OF_ASC_NODE><ARG_OF_PERICENTER>87.0841</ARG_OF_PERICENTER><MEAN_ANOMALY>273.0607</MEAN_ANOMALY></meanElements><tleParameters><EPHEMERIS_TYPE>0</EPHEMERIS_TYPE><CLASSIFICATION_TYPE>U</CLASSIFICATION_TYPE><NORAD_CAT_ID>42806</NORAD_CAT_ID><ELEMENT_SET_NO>999</ELEMENT_SET_NO><REV_AT_EPOCH>33252</REV_AT_EPOCH><BSTAR>.68084E-3</BSTAR><MEAN_MOTION_DOT>.2314E-4</MEAN_MOTION_DOT><MEAN_MOTION_DDOT>0</MEAN_MOTION_DDOT></tleParameters></data></segment></body></omm>
<omm id="CCSDS_OMM_VERS" version="2.0">
<header><CREATION_DATE/><ORIGINATOR/></header><body><segment><metadata><OBJECT_NAME>IRIDIUM 118</OBJECT_NAME><OBJECT_ID>2017-039E</OBJECT_ID><CENTER_NAME>EARTH</CENTER_NAME><REF_FRAME>TEME</REF_FRAME><TIME_SYSTEM>UTC</TIME_SYSTEM><MEAN_ELEMENT_THEORY>SGP4</MEAN_ELEMENT_THEORY></metadata><data><meanElements><EPOCH>2023-10-08T14:58:30.404064</EPOCH><MEAN_MOTION>14.34220859</MEAN_MOTION><ECCENTRICITY>.0002089</ECCENTRICITY><INCLINATION>86.3989</INCLINATION><RA_OF_ASC_NODE>44.2496</RA_OF_ASC_NODE><ARG_OF_PERICENTER>93.8082</ARG_OF_PERICENTER><MEAN_ANOMALY>266.3353</MEAN_ANOMALY></meanElements><tleParameters><EPHEMERIS_TYPE>0</EPHEMERIS_TYPE><CLASSIFICATION_TYPE>U</CLASSIFICATION_TYPE><NORAD_CAT_ID>42807</NORAD_CAT_ID><ELEMENT_SET_NO>999</ELEMENT_SET_NO><REV_AT_EPOCH>32911</REV_AT_EPOCH><BSTAR>-.37532E-4</BSTAR><MEAN_MOTION_DOT>-.85E-6</MEAN_MOTION_DOT><MEAN_MOTION_DDOT>0</MEAN_MOTION_DDOT></tleParameters></data></segment></body></omm>
<omm id="CCSDS_OMM_VERS" version="2.0">
<header><CREATION_DATE/><ORIGINATOR/></header><body><segment><metadata><OBJECT_NAME>IRIDIUM 117</OBJECT_NAME><OBJECT_ID>2017-039F</OBJECT_ID><CENTER_NAME>EARTH</CENTER_NAME><REF_FRAME>TEME</REF_FRAME><TIME_SYSTEM>UTC</TIME_SYSTEM><MEAN_ELEMENT_THEORY>SGP4</MEAN_ELEMENT_THEORY></metadata><data><meanElements><EPOCH>2023-10-08T10:24:30.826368</EPOCH><MEAN_MOTION>14.34219460</MEAN_MOTION><ECCENTRICITY>.0002066</ECCENTRICITY><INCLINATION>86.3987</INCLINATION><RA_OF_ASC_NODE>44.2952</RA_OF_ASC_NODE><ARG_OF_PERICENTER>90.5023</ARG_OF_PERICENTER><MEAN_ANOMALY>269.6410</MEAN_ANOMALY></meanElements><tleParameters><EPHEMERIS_TYPE>0</EPHEMERIS_TYPE><CLASSIFICATION_TYPE>U</CLASSIFICATION_TYPE><NORAD_CAT_ID>42808</NORAD_CAT_ID><ELEMENT_SET_NO>999</ELEMENT_SET_NO><REV_AT_EPOCH>32911</REV_AT_EPOCH><BSTAR>.25677E-3</BSTAR><MEAN_MOTION_DOT>.739E-5</MEAN_MOTION_DOT><MEAN_MOTION_DDOT>0</MEAN_MOTION_DDOT></tleParameters></data></segment></body></omm>

</ndm>
