IRIDIUM 112             
1 41925U 17003J   23281.58349704  .00000356  00000+0  12023-3 0  9992
2 41925  86.3966 138.9974 0002353  88.0026 272.1439 14.34218793352436
IRIDIUM 111             
1 41926U 17003K   23281.57081307  .00000044  00000+0  85372-5 0  9997
2 41926  86.3970 139.0517 0002034  77.6527 282.4896 14.34216273352413
IRIDIUM 113             
1 42803U 17039A   23281.55077691  .00001019  00000+0  35671-3 0  9998
2 42803  86.4036  12.7884 0002248  90.6244 269.5209 14.34217911330346
IRIDIUM 123             
1 42804U 17039B   23281.59225140  .00000763  00000+0  26552-3 0  9990
2 42804  86.3990  44.2601 0002341  88.9794 271.1670 14.34221455329118
IRIDIUM 120             
1 42805U 17039C   23281.54443334  .00000319  00000+0  10685-3 0  9990
2 42805  86.4024  12.7010 0002093  92.0052 268.1384 14.34218558330333
IRIDIUM 115             
1 42806U 17039D   23281.49473801  .00002314  00000+0  68084-3 0  9990
2 42806  86.4560  12.7103 0002165  87.0841 273.0607 14.43339543332526
IRIDIUM 118             
1 42807U 17039E   23281.62396301 -.00000085  00000+0 -37532-4 0  9995
2 42807  86.3989  44.2496 0002089  93.8082 266.3353 14.34220859329116
IRIDIUM 117             
1 42808U 17039F   23281.43369012  .00000739  00000+0  25677-3 0  9994
2 42808  86.3987  44.2952 0002066  90.5023 269.6410 14.34219460329112
